[{"OBJECT_NAME":"KUIPER-00154","OBJECT_ID":"2025-228Y","EPOCH":"2026-03-09T23:48:54.256032","MEAN_MOTION":14.79970678,"ECCENTRICITY":6.956e-5,"INCLINATION":51.9025,"RA_OF_ASC_NODE":334.2705,"ARG_OF_PERICENTER":101.8892,"MEAN_ANOMALY":258.2149,"EPHEMERIS_TYPE":0,"CLASSIFICATION_TYPE":"U","NORAD_CAT_ID":65969,"ELEMENT_SET_NO":999,"REV_AT_EPOCH":2362,"BSTAR":0.00067417698,"MEAN_MOTION_DOT":4.927e-5,"MEAN_MOTION_DDOT":0},{"OBJECT_NAME":"CZ-6A DEB","OBJECT_ID":"2022-151QP","EPOCH":"2026-03-09T02:57:40.392288","MEAN_MOTION":14.90154105,"ECCENTRICITY":0.00458103,"INCLINATION":98.6088,"RA_OF_ASC_NODE":136.2447,"ARG_OF_PERICENTER":198.9434,"MEAN_ANOMALY":161.0079,"EPHEMERIS_TYPE":0,"CLASSIFICATION_TYPE":"U","NORAD_CAT_ID":54902,"ELEMENT_SET_NO":999,"REV_AT_EPOCH":17583,"BSTAR":0.0048981783,"MEAN_MOTION_DOT":0.00048606,"MEAN_MOTION_DDOT":0}]
